[{"OBJECT_NAME":"STARLINK-5413","OBJECT_ID":"2022-175BC","EPOCH":"2026-03-09T01:26:35.019456","MEAN_MOTION":15.08838431,"ECCENTRICITY":0.00014623,"INCLINATION":53.2183,"RA_OF_ASC_NODE":17.1182,"ARG_OF_PERICENTER":89.8611,"MEAN_ANOMALY":270.2549,"EPHEMERIS_TYPE":0,"CLASSIFICATION_TYPE":"U","NORAD_CAT_ID":54808,"ELEMENT_SET_NO":999,"REV_AT_EPOCH":18024,"BSTAR":2.3896267e-5,"MEAN_MOTION_DOT":9.2e-7,"MEAN_MOTION_DDOT":0},{"OBJECT_NAME":"JILIN-1 KUANFU 02A","OBJECT_ID":"2023-127A","EPOCH":"2026-03-09T22:42:00.221760","MEAN_MOTION":15.09948681,"ECCENTRICITY":0.0009702,"INCLINATION":97.5529,"RA_OF_ASC_NODE":164.1218,"ARG_OF_PERICENTER":318.2814,"MEAN_ANOMALY":41.7675,"EPHEMERIS_TYPE":0,"CLASSIFICATION_TYPE":"U","NORAD_CAT_ID":57696,"ELEMENT_SET_NO":999,"REV_AT_EPOCH":14065,"BSTAR":0.00045097028,"MEAN_MOTION_DOT":7.263e-5,"MEAN_MOTION_DDOT":0}]
